{
"type": "FeatureCollection",
"name": "doubs_pts_utm",
"crs": { "type": "name", "properties": { "name": "urn:ogc:def:crs:EPSG::32631" } },
"features": [
{ "type": "Feature", "properties": { "id": 1.0 }, "geometry": { "type": "Point", "coordinates": [ 746438.111457403982058, 5179154.512990619987249 ] } },
{ "type": "Feature", "properties": { "id": 2.0 }, "geometry": { "type": "Point", "coordinates": [ 748663.988985473755747, 5181289.346115775406361 ] } },
{ "type": "Feature", "properties": { "id": 3.0 }, "geometry": { "type": "Point", "coordinates": [ 751912.987996706273407, 5182626.679806655272841 ] } },
{ "type": "Feature", "properties": { "id": 4.0 }, "geometry": { "type": "Point", "coordinates": [ 750835.186151754693128, 5186667.920466471463442 ] } },
{ "type": "Feature", "properties": { "id": 5.0 }, "geometry": { "type": "Point", "coordinates": [ 753232.646164664067328, 5190494.703159349039197 ] } },
{ "type": "Feature", "properties": { "id": 6.0 }, "geometry": { "type": "Point", "coordinates": [ 755271.988025499042124, 5194908.403120592236519 ] } },
{ "type": "Feature", "properties": { "id": 7.0 }, "geometry": { "type": "Point", "coordinates": [ 755920.190830946899951, 5199022.88326832652092 ] } },
{ "type": "Feature", "properties": { "id": 8.0 }, "geometry": { "type": "Point", "coordinates": [ 754384.214370458386838, 5204125.748560678213835 ] } },
{ "type": "Feature", "properties": { "id": 9.0 }, "geometry": { "type": "Point", "coordinates": [ 764391.319076965562999, 5212375.247100002132356 ] } },
{ "type": "Feature", "properties": { "id": 10.0 }, "geometry": { "type": "Point", "coordinates": [ 776564.968583022011444, 5217618.359840809367597 ] } },
{ "type": "Feature", "properties": { "id": 11.0 }, "geometry": { "type": "Point", "coordinates": [ 783499.596721966518089, 5223837.854670479893684 ] } },
{ "type": "Feature", "properties": { "id": 12.0 }, "geometry": { "type": "Point", "coordinates": [ 790361.308625773992389, 5229582.149289623834193 ] } },
{ "type": "Feature", "properties": { "id": 13.0 }, "geometry": { "type": "Point", "coordinates": [ 796213.947578925639391, 5237209.411539210937917 ] } },
{ "type": "Feature", "properties": { "id": 14.0 }, "geometry": { "type": "Point", "coordinates": [ 798631.599368887604214, 5242864.419455550611019 ] } },
{ "type": "Feature", "properties": { "id": 15.0 }, "geometry": { "type": "Point", "coordinates": [ 807438.77609775622841, 5246686.072268133983016 ] } },
{ "type": "Feature", "properties": { "id": 16.0 }, "geometry": { "type": "Point", "coordinates": [ 812976.111061682226136, 5253354.829405401833355 ] } },
{ "type": "Feature", "properties": { "id": 17.0 }, "geometry": { "type": "Point", "coordinates": [ 804992.368842181749642, 5251250.459980560466647 ] } },
{ "type": "Feature", "properties": { "id": 18.0 }, "geometry": { "type": "Point", "coordinates": [ 797293.764666380011477, 5249893.552965437062085 ] } },
{ "type": "Feature", "properties": { "id": 19.0 }, "geometry": { "type": "Point", "coordinates": [ 789697.758734988397919, 5248070.97159508895129 ] } },
{ "type": "Feature", "properties": { "id": 20.0 }, "geometry": { "type": "Point", "coordinates": [ 783695.266271667089313, 5247056.761266205459833 ] } },
{ "type": "Feature", "properties": { "id": 21.0 }, "geometry": { "type": "Point", "coordinates": [ 782898.141082788002677, 5250024.840066618286073 ] } },
{ "type": "Feature", "properties": { "id": 22.0 }, "geometry": { "type": "Point", "coordinates": [ 784512.051656172028743, 5253830.903467122465372 ] } },
{ "type": "Feature", "properties": { "id": 23.0 }, "geometry": { "type": "Point", "coordinates": [ 784657.358366020140238, 5259249.841373013332486 ] } },
{ "type": "Feature", "properties": { "id": 24.0 }, "geometry": { "type": "Point", "coordinates": [ 779250.261128734680824, 5261394.769913740456104 ] } },
{ "type": "Feature", "properties": { "id": 25.0 }, "geometry": { "type": "Point", "coordinates": [ 766059.919710074784234, 5255490.392733464948833 ] } },
{ "type": "Feature", "properties": { "id": 26.0 }, "geometry": { "type": "Point", "coordinates": [ 745904.832668321905658, 5243673.037319080904126 ] } },
{ "type": "Feature", "properties": { "id": 27.0 }, "geometry": { "type": "Point", "coordinates": [ 736182.495524434605613, 5239429.239830119535327 ] } },
{ "type": "Feature", "properties": { "id": 28.0 }, "geometry": { "type": "Point", "coordinates": [ 729611.177029211539775, 5235925.063764959573746 ] } },
{ "type": "Feature", "properties": { "id": 29.0 }, "geometry": { "type": "Point", "coordinates": [ 721800.670076037058607, 5230339.452756574377418 ] } },
{ "type": "Feature", "properties": { "id": 30.0 }, "geometry": { "type": "Point", "coordinates": [ 714329.137036973144859, 5224056.605554237030447 ] } }
]
}
