{
"type": "FeatureCollection",
"name": "doubs_pts_env",
"crs": { "type": "name", "properties": { "name": "urn:ogc:def:crs:EPSG::32631" } },
"features": [
{ "type": "Feature", "properties": { "id": 1.0, "doubs_dem": 964.832763671875, "carea": 9962.357421875, "cslope": 0.098527848720550537, "dfs": 3.0, "alt": 934.0, "slo": 6.176, "flo": 84.0, "pH": 79.0, "har": 45.0, "pho": 1.0, "nit": 20.0, "amm": 0.0, "oxy": 122.0, "bdo": 27.0 }, "geometry": { "type": "Point", "coordinates": [ 746438.111457403982058, 5179154.512990619987249 ] } },
{ "type": "Feature", "properties": { "id": 2.0, "doubs_dem": 947.79718017578125, "carea": 5278.6337890625, "cslope": 0.0938258096575737, "dfs": 22.0, "alt": 932.0, "slo": 3.434, "flo": 100.0, "pH": 80.0, "har": 40.0, "pho": 2.0, "nit": 20.0, "amm": 10.0, "oxy": 103.0, "bdo": 19.0 }, "geometry": { "type": "Point", "coordinates": [ 748663.988985473755747, 5181289.346115775406361 ] } },
{ "type": "Feature", "properties": { "id": 3.0, "doubs_dem": 901.21673583984375, "carea": 52353.3203125, "cslope": 0.12680803239345551, "dfs": 102.0, "alt": 914.0, "slo": 3.638, "flo": 180.0, "pH": 83.0, "har": 52.0, "pho": 5.0, "nit": 22.0, "amm": 5.0, "oxy": 105.0, "bdo": 35.0 }, "geometry": { "type": "Point", "coordinates": [ 751912.987996706273407, 5182626.679806655272841 ] } },
{ "type": "Feature", "properties": { "id": 4.0, "doubs_dem": 850.92120361328125, "carea": 51395.40234375, "cslope": 0.1074068546295166, "dfs": 185.0, "alt": 854.0, "slo": 3.497, "flo": 253.0, "pH": 80.0, "har": 72.0, "pho": 10.0, "nit": 21.0, "amm": 0.0, "oxy": 110.0, "bdo": 13.0 }, "geometry": { "type": "Point", "coordinates": [ 750835.186151754693128, 5186667.920466471463442 ] } },
{ "type": "Feature", "properties": { "id": 5.0, "doubs_dem": 847.0, "carea": 3473.38232421875, "cslope": 0.0062138624489307404, "dfs": 215.0, "alt": 849.0, "slo": 3.178, "flo": 264.0, "pH": 81.0, "har": 84.0, "pho": 38.0, "nit": 52.0, "amm": 20.0, "oxy": 80.0, "bdo": 62.0 }, "geometry": { "type": "Point", "coordinates": [ 753232.646164664067328, 5190494.703159349039197 ] } },
{ "type": "Feature", "properties": { "id": 6.0, "doubs_dem": 842.39031982421875, "carea": 305535.5625, "cslope": 0.16193152964115143, "dfs": 324.0, "alt": 846.0, "slo": 3.497, "flo": 286.0, "pH": 79.0, "har": 60.0, "pho": 20.0, "nit": 15.0, "amm": 0.0, "oxy": 102.0, "bdo": 53.0 }, "geometry": { "type": "Point", "coordinates": [ 755271.988025499042124, 5194908.403120592236519 ] } },
{ "type": "Feature", "properties": { "id": 7.0, "doubs_dem": 840.7763671875, "carea": 21782.138671875, "cslope": 0.21487785875797272, "dfs": 268.0, "alt": 841.0, "slo": 4.205, "flo": 400.0, "pH": 81.0, "har": 88.0, "pho": 7.0, "nit": 15.0, "amm": 0.0, "oxy": 111.0, "bdo": 22.0 }, "geometry": { "type": "Point", "coordinates": [ 755920.190830946899951, 5199022.88326832652092 ] } },
{ "type": "Feature", "properties": { "id": 8.0, "doubs_dem": 801.81024169921875, "carea": 5290.244140625, "cslope": 0.013526211492717266, "dfs": 491.0, "alt": 792.0, "slo": 3.258, "flo": 130.0, "pH": 81.0, "har": 94.0, "pho": 20.0, "nit": 41.0, "amm": 12.0, "oxy": 70.0, "bdo": 81.0 }, "geometry": { "type": "Point", "coordinates": [ 754384.214370458386838, 5204125.748560678213835 ] } },
{ "type": "Feature", "properties": { "id": 9.0, "doubs_dem": 839.4049072265625, "carea": 54437.83984375, "cslope": 0.096343204379081726, "dfs": 705.0, "alt": 752.0, "slo": 2.565, "flo": 480.0, "pH": 80.0, "har": 90.0, "pho": 30.0, "nit": 82.0, "amm": 12.0, "oxy": 72.0, "bdo": 52.0 }, "geometry": { "type": "Point", "coordinates": [ 764391.319076965562999, 5212375.247100002132356 ] } },
{ "type": "Feature", "properties": { "id": 10.0, "doubs_dem": 922.8677978515625, "carea": 21303.662109375, "cslope": 0.11372844129800797, "dfs": 990.0, "alt": 617.0, "slo": 4.605, "flo": 1000.0, "pH": 77.0, "har": 82.0, "pho": 6.0, "nit": 75.0, "amm": 1.0, "oxy": 100.0, "bdo": 43.0 }, "geometry": { "type": "Point", "coordinates": [ 776564.968583022011444, 5217618.359840809367597 ] } },
{ "type": "Feature", "properties": { "id": 11.0, "doubs_dem": 817.56744384765625, "carea": 39626.734375, "cslope": 0.23092935979366302, "dfs": 1234.0, "alt": 483.0, "slo": 3.738, "flo": 1990.0, "pH": 81.0, "har": 96.0, "pho": 30.0, "nit": 160.0, "amm": 0.0, "oxy": 115.0, "bdo": 27.0 }, "geometry": { "type": "Point", "coordinates": [ 783499.596721966518089, 5223837.854670479893684 ] } },
{ "type": "Feature", "properties": { "id": 12.0, "doubs_dem": 913.23883056640625, "carea": 15884.4755859375, "cslope": 0.078439459204673767, "dfs": 1324.0, "alt": 477.0, "slo": 2.833, "flo": 2000.0, "pH": 79.0, "har": 86.0, "pho": 4.0, "nit": 50.0, "amm": 0.0, "oxy": 122.0, "bdo": 30.0 }, "geometry": { "type": "Point", "coordinates": [ 790361.308625773992389, 5229582.149289623834193 ] } },
{ "type": "Feature", "properties": { "id": 13.0, "doubs_dem": 725.91766357421875, "carea": 66961.0234375, "cslope": 0.19288061559200287, "dfs": 1436.0, "alt": 450.0, "slo": 3.091, "flo": 2110.0, "pH": 81.0, "har": 98.0, "pho": 6.0, "nit": 52.0, "amm": 0.0, "oxy": 124.0, "bdo": 24.0 }, "geometry": { "type": "Point", "coordinates": [ 796213.947578925639391, 5237209.411539210937917 ] } },
{ "type": "Feature", "properties": { "id": 14.0, "doubs_dem": 531.7540283203125, "carea": 195658.03125, "cslope": 0.22459806501865387, "dfs": 1522.0, "alt": 434.0, "slo": 2.565, "flo": 2120.0, "pH": 83.0, "har": 98.0, "pho": 27.0, "nit": 123.0, "amm": 0.0, "oxy": 123.0, "bdo": 38.0 }, "geometry": { "type": "Point", "coordinates": [ 798631.599368887604214, 5242864.419455550611019 ] } },
{ "type": "Feature", "properties": { "id": 15.0, "doubs_dem": 812.0023193359375, "carea": 39882.66796875, "cslope": 0.19903601706027985, "dfs": 1645.0, "alt": 415.0, "slo": 1.792, "flo": 2300.0, "pH": 86.0, "har": 86.0, "pho": 40.0, "nit": 100.0, "amm": 0.0, "oxy": 117.0, "bdo": 21.0 }, "geometry": { "type": "Point", "coordinates": [ 807438.77609775622841, 5246686.072268133983016 ] } },
{ "type": "Feature", "properties": { "id": 16.0, "doubs_dem": 438.07510375976562, "carea": 98587.71875, "cslope": 0.2688305675983429, "dfs": 1859.0, "alt": 375.0, "slo": 3.045, "flo": 1610.0, "pH": 80.0, "har": 88.0, "pho": 20.0, "nit": 200.0, "amm": 5.0, "oxy": 103.0, "bdo": 27.0 }, "geometry": { "type": "Point", "coordinates": [ 812976.111061682226136, 5253354.829405401833355 ] } },
{ "type": "Feature", "properties": { "id": 17.0, "doubs_dem": 597.60107421875, "carea": 16291.5048828125, "cslope": 0.33317244052886963, "dfs": 1985.0, "alt": 348.0, "slo": 1.792, "flo": 2430.0, "pH": 80.0, "har": 92.0, "pho": 20.0, "nit": 250.0, "amm": 20.0, "oxy": 102.0, "bdo": 46.0 }, "geometry": { "type": "Point", "coordinates": [ 804992.368842181749642, 5251250.459980560466647 ] } },
{ "type": "Feature", "properties": { "id": 18.0, "doubs_dem": 574.3997802734375, "carea": 13483.7314453125, "cslope": 0.5254817008972168, "dfs": 2110.0, "alt": 332.0, "slo": 2.197, "flo": 2500.0, "pH": 80.0, "har": 90.0, "pho": 50.0, "nit": 220.0, "amm": 20.0, "oxy": 103.0, "bdo": 28.0 }, "geometry": { "type": "Point", "coordinates": [ 797293.764666380011477, 5249893.552965437062085 ] } },
{ "type": "Feature", "properties": { "id": 19.0, "doubs_dem": 481.05130004882812, "carea": 27721.767578125, "cslope": 0.37370723485946655, "dfs": 2246.0, "alt": 310.0, "slo": 1.792, "flo": 2590.0, "pH": 81.0, "har": 84.0, "pho": 60.0, "nit": 220.0, "amm": 15.0, "oxy": 106.0, "bdo": 33.0 }, "geometry": { "type": "Point", "coordinates": [ 789697.758734988397919, 5248070.97159508895129 ] } },
{ "type": "Feature", "properties": { "id": 20.0, "doubs_dem": 492.96987915039062, "carea": 144049.109375, "cslope": 0.23781475424766541, "dfs": 2477.0, "alt": 286.0, "slo": 2.197, "flo": 2680.0, "pH": 80.0, "har": 86.0, "pho": 30.0, "nit": 300.0, "amm": 30.0, "oxy": 103.0, "bdo": 28.0 }, "geometry": { "type": "Point", "coordinates": [ 783695.266271667089313, 5247056.761266205459833 ] } },
{ "type": "Feature", "properties": { "id": 21.0, "doubs_dem": 504.1234130859375, "carea": 5089.95458984375, "cslope": 0.17575599253177643, "dfs": 2812.0, "alt": 262.0, "slo": 2.398, "flo": 2720.0, "pH": 79.0, "har": 85.0, "pho": 20.0, "nit": 220.0, "amm": 10.0, "oxy": 90.0, "bdo": 41.0 }, "geometry": { "type": "Point", "coordinates": [ 782898.141082788002677, 5250024.840066618286073 ] } },
{ "type": "Feature", "properties": { "id": 22.0, "doubs_dem": 371.1436767578125, "carea": 64121.15625, "cslope": 0.28211149573326111, "dfs": 2940.0, "alt": 254.0, "slo": 2.708, "flo": 2790.0, "pH": 81.0, "har": 88.0, "pho": 20.0, "nit": 162.0, "amm": 7.0, "oxy": 91.0, "bdo": 48.0 }, "geometry": { "type": "Point", "coordinates": [ 784512.051656172028743, 5253830.903467122465372 ] } },
{ "type": "Feature", "properties": { "id": 23.0, "doubs_dem": 405.78961181640625, "carea": 9569.423828125, "cslope": 0.18621030449867249, "dfs": 3043.0, "alt": 246.0, "slo": 2.565, "flo": 2880.0, "pH": 81.0, "har": 97.0, "pho": 260.0, "nit": 350.0, "amm": 115.0, "oxy": 63.0, "bdo": 164.0 }, "geometry": { "type": "Point", "coordinates": [ 784657.358366020140238, 5259249.841373013332486 ] } },
{ "type": "Feature", "properties": { "id": 24.0, "doubs_dem": 440.50537109375, "carea": 31417.607421875, "cslope": 0.06410815566778183, "dfs": 3147.0, "alt": 241.0, "slo": 1.386, "flo": 2976.0, "pH": 80.0, "har": 99.0, "pho": 140.0, "nit": 250.0, "amm": 60.0, "oxy": 52.0, "bdo": 123.0 }, "geometry": { "type": "Point", "coordinates": [ 779250.261128734680824, 5261394.769913740456104 ] } },
{ "type": "Feature", "properties": { "id": 25.0, "doubs_dem": 338.95523071289062, "carea": 267160.84375, "cslope": 0.19689606130123138, "dfs": 3278.0, "alt": 231.0, "slo": 1.792, "flo": 3870.0, "pH": 79.0, "har": 100.0, "pho": 422.0, "nit": 620.0, "amm": 180.0, "oxy": 41.0, "bdo": 167.0 }, "geometry": { "type": "Point", "coordinates": [ 766059.919710074784234, 5255490.392733464948833 ] } },
{ "type": "Feature", "properties": { "id": 26.0, "doubs_dem": 556.89947509765625, "carea": 6043.0400390625, "cslope": 0.16068018972873688, "dfs": 3579.0, "alt": 214.0, "slo": 1.792, "flo": 3910.0, "pH": 79.0, "har": 94.0, "pho": 143.0, "nit": 300.0, "amm": 30.0, "oxy": 62.0, "bdo": 89.0 }, "geometry": { "type": "Point", "coordinates": [ 745904.832668321905658, 5243673.037319080904126 ] } },
{ "type": "Feature", "properties": { "id": 27.0, "doubs_dem": 389.75363159179688, "carea": 84267.7734375, "cslope": 0.15277869999408722, "dfs": 3732.0, "alt": 206.0, "slo": 2.565, "flo": 3960.0, "pH": 81.0, "har": 90.0, "pho": 58.0, "nit": 300.0, "amm": 26.0, "oxy": 72.0, "bdo": 63.0 }, "geometry": { "type": "Point", "coordinates": [ 736182.495524434605613, 5239429.239830119535327 ] } },
{ "type": "Feature", "properties": { "id": 28.0, "doubs_dem": 239.36244201660156, "carea": 64378.34375, "cslope": 0.15525612235069275, "dfs": 3947.0, "alt": 195.0, "slo": 1.386, "flo": 4320.0, "pH": 83.0, "har": 100.0, "pho": 74.0, "nit": 400.0, "amm": 30.0, "oxy": 81.0, "bdo": 45.0 }, "geometry": { "type": "Point", "coordinates": [ 729611.177029211539775, 5235925.063764959573746 ] } },
{ "type": "Feature", "properties": { "id": 29.0, "doubs_dem": 261.98666381835938, "carea": 2720.662109375, "cslope": 0.011889234185218811, "dfs": 4220.0, "alt": 183.0, "slo": 1.946, "flo": 6770.0, "pH": 78.0, "har": 110.0, "pho": 45.0, "nit": 162.0, "amm": 10.0, "oxy": 90.0, "bdo": 42.0 }, "geometry": { "type": "Point", "coordinates": [ 721800.670076037058607, 5230339.452756574377418 ] } },
{ "type": "Feature", "properties": { "id": 30.0, "doubs_dem": 274.57394409179688, "carea": 10489.642578125, "cslope": 0.053535204380750656, "dfs": 4530.0, "alt": 172.0, "slo": 1.099, "flo": 6900.0, "pH": 82.0, "har": 109.0, "pho": 65.0, "nit": 160.0, "amm": 10.0, "oxy": 82.0, "bdo": 44.0 }, "geometry": { "type": "Point", "coordinates": [ 714329.137036973144859, 5224056.605554237030447 ] } },
{ "type": "Feature", "properties": { "id": 1.0, "doubs_dem": 964.832763671875, "carea": 9962.357421875, "cslope": 0.098527848720550537, "dfs": 3.0, "alt": 934.0, "slo": 6.176, "flo": 84.0, "pH": 79.0, "har": 45.0, "pho": 1.0, "nit": 20.0, "amm": 0.0, "oxy": 122.0, "bdo": 27.0 }, "geometry": { "type": "Point", "coordinates": [ 746438.111457403982058, 5179154.512990619987249 ] } },
{ "type": "Feature", "properties": { "id": 2.0, "doubs_dem": 947.79718017578125, "carea": 5278.6337890625, "cslope": 0.0938258096575737, "dfs": 22.0, "alt": 932.0, "slo": 3.434, "flo": 100.0, "pH": 80.0, "har": 40.0, "pho": 2.0, "nit": 20.0, "amm": 10.0, "oxy": 103.0, "bdo": 19.0 }, "geometry": { "type": "Point", "coordinates": [ 748663.988985473755747, 5181289.346115775406361 ] } },
{ "type": "Feature", "properties": { "id": 3.0, "doubs_dem": 901.21673583984375, "carea": 52353.3203125, "cslope": 0.12680803239345551, "dfs": 102.0, "alt": 914.0, "slo": 3.638, "flo": 180.0, "pH": 83.0, "har": 52.0, "pho": 5.0, "nit": 22.0, "amm": 5.0, "oxy": 105.0, "bdo": 35.0 }, "geometry": { "type": "Point", "coordinates": [ 751912.987996706273407, 5182626.679806655272841 ] } },
{ "type": "Feature", "properties": { "id": 4.0, "doubs_dem": 850.92120361328125, "carea": 51395.40234375, "cslope": 0.1074068546295166, "dfs": 185.0, "alt": 854.0, "slo": 3.497, "flo": 253.0, "pH": 80.0, "har": 72.0, "pho": 10.0, "nit": 21.0, "amm": 0.0, "oxy": 110.0, "bdo": 13.0 }, "geometry": { "type": "Point", "coordinates": [ 750835.186151754693128, 5186667.920466471463442 ] } },
{ "type": "Feature", "properties": { "id": 5.0, "doubs_dem": 847.0, "carea": 3473.38232421875, "cslope": 0.0062138624489307404, "dfs": 215.0, "alt": 849.0, "slo": 3.178, "flo": 264.0, "pH": 81.0, "har": 84.0, "pho": 38.0, "nit": 52.0, "amm": 20.0, "oxy": 80.0, "bdo": 62.0 }, "geometry": { "type": "Point", "coordinates": [ 753232.646164664067328, 5190494.703159349039197 ] } },
{ "type": "Feature", "properties": { "id": 6.0, "doubs_dem": 842.39031982421875, "carea": 305535.5625, "cslope": 0.16193152964115143, "dfs": 324.0, "alt": 846.0, "slo": 3.497, "flo": 286.0, "pH": 79.0, "har": 60.0, "pho": 20.0, "nit": 15.0, "amm": 0.0, "oxy": 102.0, "bdo": 53.0 }, "geometry": { "type": "Point", "coordinates": [ 755271.988025499042124, 5194908.403120592236519 ] } },
{ "type": "Feature", "properties": { "id": 7.0, "doubs_dem": 840.7763671875, "carea": 21782.138671875, "cslope": 0.21487785875797272, "dfs": 268.0, "alt": 841.0, "slo": 4.205, "flo": 400.0, "pH": 81.0, "har": 88.0, "pho": 7.0, "nit": 15.0, "amm": 0.0, "oxy": 111.0, "bdo": 22.0 }, "geometry": { "type": "Point", "coordinates": [ 755920.190830946899951, 5199022.88326832652092 ] } },
{ "type": "Feature", "properties": { "id": 8.0, "doubs_dem": 801.81024169921875, "carea": 5290.244140625, "cslope": 0.013526211492717266, "dfs": 491.0, "alt": 792.0, "slo": 3.258, "flo": 130.0, "pH": 81.0, "har": 94.0, "pho": 20.0, "nit": 41.0, "amm": 12.0, "oxy": 70.0, "bdo": 81.0 }, "geometry": { "type": "Point", "coordinates": [ 754384.214370458386838, 5204125.748560678213835 ] } },
{ "type": "Feature", "properties": { "id": 9.0, "doubs_dem": 839.4049072265625, "carea": 54437.83984375, "cslope": 0.096343204379081726, "dfs": 705.0, "alt": 752.0, "slo": 2.565, "flo": 480.0, "pH": 80.0, "har": 90.0, "pho": 30.0, "nit": 82.0, "amm": 12.0, "oxy": 72.0, "bdo": 52.0 }, "geometry": { "type": "Point", "coordinates": [ 764391.319076965562999, 5212375.247100002132356 ] } },
{ "type": "Feature", "properties": { "id": 10.0, "doubs_dem": 922.8677978515625, "carea": 21303.662109375, "cslope": 0.11372844129800797, "dfs": 990.0, "alt": 617.0, "slo": 4.605, "flo": 1000.0, "pH": 77.0, "har": 82.0, "pho": 6.0, "nit": 75.0, "amm": 1.0, "oxy": 100.0, "bdo": 43.0 }, "geometry": { "type": "Point", "coordinates": [ 776564.968583022011444, 5217618.359840809367597 ] } },
{ "type": "Feature", "properties": { "id": 11.0, "doubs_dem": 817.56744384765625, "carea": 39626.734375, "cslope": 0.23092935979366302, "dfs": 1234.0, "alt": 483.0, "slo": 3.738, "flo": 1990.0, "pH": 81.0, "har": 96.0, "pho": 30.0, "nit": 160.0, "amm": 0.0, "oxy": 115.0, "bdo": 27.0 }, "geometry": { "type": "Point", "coordinates": [ 783499.596721966518089, 5223837.854670479893684 ] } },
{ "type": "Feature", "properties": { "id": 12.0, "doubs_dem": 913.23883056640625, "carea": 15884.4755859375, "cslope": 0.078439459204673767, "dfs": 1324.0, "alt": 477.0, "slo": 2.833, "flo": 2000.0, "pH": 79.0, "har": 86.0, "pho": 4.0, "nit": 50.0, "amm": 0.0, "oxy": 122.0, "bdo": 30.0 }, "geometry": { "type": "Point", "coordinates": [ 790361.308625773992389, 5229582.149289623834193 ] } },
{ "type": "Feature", "properties": { "id": 13.0, "doubs_dem": 725.91766357421875, "carea": 66961.0234375, "cslope": 0.19288061559200287, "dfs": 1436.0, "alt": 450.0, "slo": 3.091, "flo": 2110.0, "pH": 81.0, "har": 98.0, "pho": 6.0, "nit": 52.0, "amm": 0.0, "oxy": 124.0, "bdo": 24.0 }, "geometry": { "type": "Point", "coordinates": [ 796213.947578925639391, 5237209.411539210937917 ] } },
{ "type": "Feature", "properties": { "id": 14.0, "doubs_dem": 531.7540283203125, "carea": 195658.03125, "cslope": 0.22459806501865387, "dfs": 1522.0, "alt": 434.0, "slo": 2.565, "flo": 2120.0, "pH": 83.0, "har": 98.0, "pho": 27.0, "nit": 123.0, "amm": 0.0, "oxy": 123.0, "bdo": 38.0 }, "geometry": { "type": "Point", "coordinates": [ 798631.599368887604214, 5242864.419455550611019 ] } },
{ "type": "Feature", "properties": { "id": 15.0, "doubs_dem": 812.0023193359375, "carea": 39882.66796875, "cslope": 0.19903601706027985, "dfs": 1645.0, "alt": 415.0, "slo": 1.792, "flo": 2300.0, "pH": 86.0, "har": 86.0, "pho": 40.0, "nit": 100.0, "amm": 0.0, "oxy": 117.0, "bdo": 21.0 }, "geometry": { "type": "Point", "coordinates": [ 807438.77609775622841, 5246686.072268133983016 ] } },
{ "type": "Feature", "properties": { "id": 16.0, "doubs_dem": 438.07510375976562, "carea": 98587.71875, "cslope": 0.2688305675983429, "dfs": 1859.0, "alt": 375.0, "slo": 3.045, "flo": 1610.0, "pH": 80.0, "har": 88.0, "pho": 20.0, "nit": 200.0, "amm": 5.0, "oxy": 103.0, "bdo": 27.0 }, "geometry": { "type": "Point", "coordinates": [ 812976.111061682226136, 5253354.829405401833355 ] } },
{ "type": "Feature", "properties": { "id": 17.0, "doubs_dem": 597.60107421875, "carea": 16291.5048828125, "cslope": 0.33317244052886963, "dfs": 1985.0, "alt": 348.0, "slo": 1.792, "flo": 2430.0, "pH": 80.0, "har": 92.0, "pho": 20.0, "nit": 250.0, "amm": 20.0, "oxy": 102.0, "bdo": 46.0 }, "geometry": { "type": "Point", "coordinates": [ 804992.368842181749642, 5251250.459980560466647 ] } },
{ "type": "Feature", "properties": { "id": 18.0, "doubs_dem": 574.3997802734375, "carea": 13483.7314453125, "cslope": 0.5254817008972168, "dfs": 2110.0, "alt": 332.0, "slo": 2.197, "flo": 2500.0, "pH": 80.0, "har": 90.0, "pho": 50.0, "nit": 220.0, "amm": 20.0, "oxy": 103.0, "bdo": 28.0 }, "geometry": { "type": "Point", "coordinates": [ 797293.764666380011477, 5249893.552965437062085 ] } },
{ "type": "Feature", "properties": { "id": 19.0, "doubs_dem": 481.05130004882812, "carea": 27721.767578125, "cslope": 0.37370723485946655, "dfs": 2246.0, "alt": 310.0, "slo": 1.792, "flo": 2590.0, "pH": 81.0, "har": 84.0, "pho": 60.0, "nit": 220.0, "amm": 15.0, "oxy": 106.0, "bdo": 33.0 }, "geometry": { "type": "Point", "coordinates": [ 789697.758734988397919, 5248070.97159508895129 ] } },
{ "type": "Feature", "properties": { "id": 20.0, "doubs_dem": 492.96987915039062, "carea": 144049.109375, "cslope": 0.23781475424766541, "dfs": 2477.0, "alt": 286.0, "slo": 2.197, "flo": 2680.0, "pH": 80.0, "har": 86.0, "pho": 30.0, "nit": 300.0, "amm": 30.0, "oxy": 103.0, "bdo": 28.0 }, "geometry": { "type": "Point", "coordinates": [ 783695.266271667089313, 5247056.761266205459833 ] } },
{ "type": "Feature", "properties": { "id": 21.0, "doubs_dem": 504.1234130859375, "carea": 5089.95458984375, "cslope": 0.17575599253177643, "dfs": 2812.0, "alt": 262.0, "slo": 2.398, "flo": 2720.0, "pH": 79.0, "har": 85.0, "pho": 20.0, "nit": 220.0, "amm": 10.0, "oxy": 90.0, "bdo": 41.0 }, "geometry": { "type": "Point", "coordinates": [ 782898.141082788002677, 5250024.840066618286073 ] } },
{ "type": "Feature", "properties": { "id": 22.0, "doubs_dem": 371.1436767578125, "carea": 64121.15625, "cslope": 0.28211149573326111, "dfs": 2940.0, "alt": 254.0, "slo": 2.708, "flo": 2790.0, "pH": 81.0, "har": 88.0, "pho": 20.0, "nit": 162.0, "amm": 7.0, "oxy": 91.0, "bdo": 48.0 }, "geometry": { "type": "Point", "coordinates": [ 784512.051656172028743, 5253830.903467122465372 ] } },
{ "type": "Feature", "properties": { "id": 23.0, "doubs_dem": 405.78961181640625, "carea": 9569.423828125, "cslope": 0.18621030449867249, "dfs": 3043.0, "alt": 246.0, "slo": 2.565, "flo": 2880.0, "pH": 81.0, "har": 97.0, "pho": 260.0, "nit": 350.0, "amm": 115.0, "oxy": 63.0, "bdo": 164.0 }, "geometry": { "type": "Point", "coordinates": [ 784657.358366020140238, 5259249.841373013332486 ] } },
{ "type": "Feature", "properties": { "id": 24.0, "doubs_dem": 440.50537109375, "carea": 31417.607421875, "cslope": 0.06410815566778183, "dfs": 3147.0, "alt": 241.0, "slo": 1.386, "flo": 2976.0, "pH": 80.0, "har": 99.0, "pho": 140.0, "nit": 250.0, "amm": 60.0, "oxy": 52.0, "bdo": 123.0 }, "geometry": { "type": "Point", "coordinates": [ 779250.261128734680824, 5261394.769913740456104 ] } },
{ "type": "Feature", "properties": { "id": 25.0, "doubs_dem": 338.95523071289062, "carea": 267160.84375, "cslope": 0.19689606130123138, "dfs": 3278.0, "alt": 231.0, "slo": 1.792, "flo": 3870.0, "pH": 79.0, "har": 100.0, "pho": 422.0, "nit": 620.0, "amm": 180.0, "oxy": 41.0, "bdo": 167.0 }, "geometry": { "type": "Point", "coordinates": [ 766059.919710074784234, 5255490.392733464948833 ] } },
{ "type": "Feature", "properties": { "id": 26.0, "doubs_dem": 556.89947509765625, "carea": 6043.0400390625, "cslope": 0.16068018972873688, "dfs": 3579.0, "alt": 214.0, "slo": 1.792, "flo": 3910.0, "pH": 79.0, "har": 94.0, "pho": 143.0, "nit": 300.0, "amm": 30.0, "oxy": 62.0, "bdo": 89.0 }, "geometry": { "type": "Point", "coordinates": [ 745904.832668321905658, 5243673.037319080904126 ] } },
{ "type": "Feature", "properties": { "id": 27.0, "doubs_dem": 389.75363159179688, "carea": 84267.7734375, "cslope": 0.15277869999408722, "dfs": 3732.0, "alt": 206.0, "slo": 2.565, "flo": 3960.0, "pH": 81.0, "har": 90.0, "pho": 58.0, "nit": 300.0, "amm": 26.0, "oxy": 72.0, "bdo": 63.0 }, "geometry": { "type": "Point", "coordinates": [ 736182.495524434605613, 5239429.239830119535327 ] } },
{ "type": "Feature", "properties": { "id": 28.0, "doubs_dem": 239.36244201660156, "carea": 64378.34375, "cslope": 0.15525612235069275, "dfs": 3947.0, "alt": 195.0, "slo": 1.386, "flo": 4320.0, "pH": 83.0, "har": 100.0, "pho": 74.0, "nit": 400.0, "amm": 30.0, "oxy": 81.0, "bdo": 45.0 }, "geometry": { "type": "Point", "coordinates": [ 729611.177029211539775, 5235925.063764959573746 ] } },
{ "type": "Feature", "properties": { "id": 29.0, "doubs_dem": 261.98666381835938, "carea": 2720.662109375, "cslope": 0.011889234185218811, "dfs": 4220.0, "alt": 183.0, "slo": 1.946, "flo": 6770.0, "pH": 78.0, "har": 110.0, "pho": 45.0, "nit": 162.0, "amm": 10.0, "oxy": 90.0, "bdo": 42.0 }, "geometry": { "type": "Point", "coordinates": [ 721800.670076037058607, 5230339.452756574377418 ] } },
{ "type": "Feature", "properties": { "id": 30.0, "doubs_dem": 274.57394409179688, "carea": 10489.642578125, "cslope": 0.053535204380750656, "dfs": 4530.0, "alt": 172.0, "slo": 1.099, "flo": 6900.0, "pH": 82.0, "har": 109.0, "pho": 65.0, "nit": 160.0, "amm": 10.0, "oxy": 82.0, "bdo": 44.0 }, "geometry": { "type": "Point", "coordinates": [ 714329.137036973144859, 5224056.605554237030447 ] } }
]
}
